COSMOS 2251 DEB         
1 36622U 93036BEL 26071.39523114  .00004606  00000+0  63295-3 0  9997
2 36622  74.0158 329.5464 0065394  82.9128 277.9477 14.77144243680730
COSMOS 2251 DEB         
1 36632U 93036BEW 26066.49815911  .00002986  00000+0  88061-3 0  9999
2 36632  73.9971 134.5350 0034575 227.7852 132.0369 14.43677953664386
COSMOS 2251 DEB         
1 37084U 93036BFE 26073.46151436  .00009624  00000+0  65974-3 0  9995
2 37084  74.0296 334.3722 0092183  29.4932 331.1410 15.02667114676441
COSMOS 2251 DEB         
1 37089U 93036BFK 26069.07615967  .00013391  00000+0  27767-2 0  9999
2 37089  74.0379 340.6185 0129188  59.4853 301.8989 14.55061783673799
COSMOS 2251 DEB         
1 37094U 93036BFQ 26055.13644271  .00003225  00000+0  10204-2 0  9990
2 37094  74.1215 346.5955 0087968 292.7320  66.4555 14.38350963855613
COSMOS 2251 DEB         
1 37095U 93036BFR 26073.19900576  .00003925  00000+0  21338-2 0  9997
2 37095  73.8478  28.7528 0189740  70.4092 291.7417 14.03849292639197
COSMOS 2251 DEB         
1 37101U 93036BFX 26060.99961763  .00005702  00000+0  10266-2 0  9997
2 37101  74.0339 301.2001 0041685   5.5095 354.6523 14.66239686668330
COSMOS 2251 DEB         
1 37108U 93036BGE 26072.23453497  .00002756  00000+0  80568-3 0  9993
2 37108  74.0423 272.9405 0091228 326.6276  32.9148 14.42086042868116
COSMOS 2251 DEB         
1 37126U 93036BGY 26060.06503348  .00001671  00000+0  23487-3 0  9994
2 37126  73.9501 201.0621 0120701  60.0186 301.2902 14.73348638 92522
COSMOS 2251 DEB         
1 37270U 93036BHJ 26071.30203544  .00005510  00000+0  43598-2 0  9998
2 37270  73.9351 189.6236 0394998 185.5212 174.1485 13.60730871782878
COSMOS 2251 DEB         
1 37278U 93036BHS 26072.00744294  .00002829  00000+0  94734-3 0  9995
2 37278  73.7861 186.3509 0298411 352.7723 126.0406 14.15588024651062
COSMOS 2251 DEB         
1 37280U 93036BHU 26072.92182581  .00002088  00000+0  91383-3 0  9998
2 37280  74.0271 253.9869 0130755   0.3112 359.8089 14.19884933586172
COSMOS 2251 DEB         
1 37292U 93036BJG 26067.87395654  .00003109  00000+0  16287-2 0  9990
2 37292  74.1216 260.5115 0210105 242.2388 115.7305 14.03995047610577
COSMOS 2251 DEB         
1 37295U 93036BJK 26072.51386390  .00003064  00000+0  55697-3 0  9996
2 37295  74.0057 106.5454 0047615 263.3011  96.2737 14.65890727836342
COSMOS 2251 DEB         
1 37305U 93036BJV 26070.50291497  .00001553  00000+0  53178-3 0  9991
2 37305  73.8694 125.8234 0045547  67.1717 293.4236 14.36504283681411
COSMOS 2251 DEB         
1 37312U 93036BKC 26073.27109253  .00001860  00000+0  52331-3 0  9995
2 37312  74.0326  33.2699 0016339 121.4149 238.8610 14.46498248874878
