[{"OBJECT_NAME":"COSMOS 2251 DEB","OBJECT_ID":"1993-036BEL","EPOCH":"2026-03-12T09:29:07.970496","MEAN_MOTION":14.77144243,"ECCENTRICITY":0.0065394,"INCLINATION":74.0158,"RA_OF_ASC_NODE":329.5464,"ARG_OF_PERICENTER":82.9128,"MEAN_ANOMALY":277.9477,"EPHEMERIS_TYPE":0,"CLASSIFICATION_TYPE":"U","NORAD_CAT_ID":36622,"ELEMENT_SET_NO":999,"REV_AT_EPOCH":68073,"BSTAR":0.00063295,"MEAN_MOTION_DOT":4.606e-5,"MEAN_MOTION_DDOT":0},{"OBJECT_NAME":"COSMOS 2251 DEB","OBJECT_ID":"1993-036BEW","EPOCH":"2026-03-07T11:57:20.947104","MEAN_MOTION":14.43677953,"ECCENTRICITY":0.00345754,"INCLINATION":73.9971,"RA_OF_ASC_NODE":134.535,"ARG_OF_PERICENTER":227.7852,"MEAN_ANOMALY":132.0369,"EPHEMERIS_TYPE":0,"CLASSIFICATION_TYPE":"U","NORAD_CAT_ID":36632,"ELEMENT_SET_NO":999,"REV_AT_EPOCH":66438,"BSTAR":0.00088060958,"MEAN_MOTION_DOT":2.986e-5,"MEAN_MOTION_DDOT":0},{"OBJECT_NAME":"COSMOS 2251 DEB","OBJECT_ID":"1993-036BFE","EPOCH":"2026-03-14T11:04:34.840704","MEAN_MOTION":15.02667114,"ECCENTRICITY":0.00921834,"INCLINATION":74.0296,"RA_OF_ASC_NODE":334.3722,"ARG_OF_PERICENTER":29.4932,"MEAN_ANOMALY":331.141,"EPHEMERIS_TYPE":0,"CLASSIFICATION_TYPE":"U","NORAD_CAT_ID":37084,"ELEMENT_SET_NO":999,"REV_AT_EPOCH":67644,"BSTAR":0.00065973949,"MEAN_MOTION_DOT":9.624e-5,"MEAN_MOTION_DDOT":0},{"OBJECT_NAME":"COSMOS 2251 DEB","OBJECT_ID":"1993-036BFK","EPOCH":"2026-03-10T01:49:40.195488","MEAN_MOTION":14.55061783,"ECCENTRICITY":0.01291889,"INCLINATION":74.0379,"RA_OF_ASC_NODE":340.6185,"ARG_OF_PERICENTER":59.4853,"MEAN_ANOMALY":301.8989,"EPHEMERIS_TYPE":0,"CLASSIFICATION_TYPE":"U","NORAD_CAT_ID":37089,"ELEMENT_SET_NO":999,"REV_AT_EPOCH":67379,"BSTAR":0.0027766548,"MEAN_MOTION_DOT":0.00013391,"MEAN_MOTION_DDOT":0},{"OBJECT_NAME":"COSMOS 2251 DEB","OBJECT_ID":"1993-036BFQ","EPOCH":"2026-02-24T03:16:28.650144","MEAN_MOTION":14.38350963,"ECCENTRICITY":0.00879684,"INCLINATION":74.1215,"RA_OF_ASC_NODE":346.5955,"ARG_OF_PERICENTER":292.732,"MEAN_ANOMALY":66.4555,"EPHEMERIS_TYPE":0,"CLASSIFICATION_TYPE":"U","NORAD_CAT_ID":37094,"ELEMENT_SET_NO":999,"REV_AT_EPOCH":85561,"BSTAR":0.001020367,"MEAN_MOTION_DOT":3.225e-5,"MEAN_MOTION_DDOT":0},{"OBJECT_NAME":"COSMOS 2251 DEB","OBJECT_ID":"1993-036BFR","EPOCH":"2026-03-14T04:46:34.097664","MEAN_MOTION":14.03849292,"ECCENTRICITY":0.01897401,"INCLINATION":73.8478,"RA_OF_ASC_NODE":28.7528,"ARG_OF_PERICENTER":70.4092,"MEAN_ANOMALY":291.7417,"EPHEMERIS_TYPE":0,"CLASSIFICATION_TYPE":"U","NORAD_CAT_ID":37095,"ELEMENT_SET_NO":999,"REV_AT_EPOCH":63919,"BSTAR":0.0021338146,"MEAN_MOTION_DOT":3.925e-5,"MEAN_MOTION_DDOT":0},{"OBJECT_NAME":"COSMOS 2251 DEB","OBJECT_ID":"1993-036BFX","EPOCH":"2026-03-01T23:59:26.963232","MEAN_MOTION":14.66239686,"ECCENTRICITY":0.0041685,"INCLINATION":74.0339,"RA_OF_ASC_NODE":301.2001,"ARG_OF_PERICENTER":5.5095,"MEAN_ANOMALY":354.6523,"EPHEMERIS_TYPE":0,"CLASSIFICATION_TYPE":"U","NORAD_CAT_ID":37101,"ELEMENT_SET_NO":999,"REV_AT_EPOCH":66833,"BSTAR":0.0010266,"MEAN_MOTION_DOT":5.702e-5,"MEAN_MOTION_DDOT":0},{"OBJECT_NAME":"COSMOS 2251 DEB","OBJECT_ID":"1993-036BGE","EPOCH":"2026-03-13T05:37:43.821408","MEAN_MOTION":14.42086042,"ECCENTRICITY":0.00912282,"INCLINATION":74.0423,"RA_OF_ASC_NODE":272.9405,"ARG_OF_PERICENTER":326.6276,"MEAN_ANOMALY":32.9148,"EPHEMERIS_TYPE":0,"CLASSIFICATION_TYPE":"U","NORAD_CAT_ID":37108,"ELEMENT_SET_NO":999,"REV_AT_EPOCH":86811,"BSTAR":0.00080568368,"MEAN_MOTION_DOT":2.756e-5,"MEAN_MOTION_DDOT":0},{"OBJECT_NAME":"COSMOS 2251 DEB","OBJECT_ID":"1993-036BGY","EPOCH":"2026-03-01T01:33:38.892672","MEAN_MOTION":14.73348638,"ECCENTRICITY":0.01207011,"INCLINATION":73.9501,"RA_OF_ASC_NODE":201.0621,"ARG_OF_PERICENTER":60.0186,"MEAN_ANOMALY":301.2902,"EPHEMERIS_TYPE":0,"CLASSIFICATION_TYPE":"U","NORAD_CAT_ID":37126,"ELEMENT_SET_NO":999,"REV_AT_EPOCH":9252,"BSTAR":0.00023487256,"MEAN_MOTION_DOT":1.671e-5,"MEAN_MOTION_DDOT":0},{"OBJECT_NAME":"COSMOS 2251 DEB","OBJECT_ID":"1993-036BHJ","EPOCH":"2026-03-12T07:14:55.862016","MEAN_MOTION":13.60730871,"ECCENTRICITY":0.0394998,"INCLINATION":73.9351,"RA_OF_ASC_NODE":189.6236,"ARG_OF_PERICENTER":185.5212,"MEAN_ANOMALY":174.1485,"EPHEMERIS_TYPE":0,"CLASSIFICATION_TYPE":"U","NORAD_CAT_ID":37270,"ELEMENT_SET_NO":999,"REV_AT_EPOCH":78287,"BSTAR":0.0043598,"MEAN_MOTION_DOT":5.51e-5,"MEAN_MOTION_DDOT":0},{"OBJECT_NAME":"COSMOS 2251 DEB","OBJECT_ID":"1993-036BHS","EPOCH":"2026-03-13T00:10:43.070016","MEAN_MOTION":14.15588024,"ECCENTRICITY":0.02984116,"INCLINATION":73.7861,"RA_OF_ASC_NODE":186.3509,"ARG_OF_PERICENTER":352.7723,"MEAN_ANOMALY":126.0406,"EPHEMERIS_TYPE":0,"CLASSIFICATION_TYPE":"U","NORAD_CAT_ID":37278,"ELEMENT_SET_NO":999,"REV_AT_EPOCH":65106,"BSTAR":0.00094733504,"MEAN_MOTION_DOT":2.829e-5,"MEAN_MOTION_DDOT":0},{"OBJECT_NAME":"COSMOS 2251 DEB","OBJECT_ID":"1993-036BHU","EPOCH":"2026-03-13T22:07:25.749984","MEAN_MOTION":14.19884933,"ECCENTRICITY":0.01307555,"INCLINATION":74.0271,"RA_OF_ASC_NODE":253.9869,"ARG_OF_PERICENTER":0.3112,"MEAN_ANOMALY":359.8089,"EPHEMERIS_TYPE":0,"CLASSIFICATION_TYPE":"U","NORAD_CAT_ID":37280,"ELEMENT_SET_NO":999,"REV_AT_EPOCH":58617,"BSTAR":0.00091383376,"MEAN_MOTION_DOT":2.088e-5,"MEAN_MOTION_DDOT":0},{"OBJECT_NAME":"COSMOS 2251 DEB","OBJECT_ID":"1993-036BJG","EPOCH":"2026-03-08T20:58:29.845056","MEAN_MOTION":14.03995047,"ECCENTRICITY":0.02101059,"INCLINATION":74.1216,"RA_OF_ASC_NODE":260.5115,"ARG_OF_PERICENTER":242.2388,"MEAN_ANOMALY":115.7305,"EPHEMERIS_TYPE":0,"CLASSIFICATION_TYPE":"U","NORAD_CAT_ID":37292,"ELEMENT_SET_NO":999,"REV_AT_EPOCH":61057,"BSTAR":0.0016286986,"MEAN_MOTION_DOT":3.109e-5,"MEAN_MOTION_DDOT":0},{"OBJECT_NAME":"COSMOS 2251 DEB","OBJECT_ID":"1993-036BJK","EPOCH":"2026-03-13T12:19:57.840960","MEAN_MOTION":14.65890727,"ECCENTRICITY":0.00476155,"INCLINATION":74.0057,"RA_OF_ASC_NODE":106.5454,"ARG_OF_PERICENTER":263.3011,"MEAN_ANOMALY":96.2737,"EPHEMERIS_TYPE":0,"CLASSIFICATION_TYPE":"U","NORAD_CAT_ID":37295,"ELEMENT_SET_NO":999,"REV_AT_EPOCH":83634,"BSTAR":0.00055696774,"MEAN_MOTION_DOT":3.064e-5,"MEAN_MOTION_DDOT":0},{"OBJECT_NAME":"COSMOS 2251 DEB","OBJECT_ID":"1993-036BJV","EPOCH":"2026-03-11T12:04:11.853408","MEAN_MOTION":14.36504283,"ECCENTRICITY":0.00455476,"INCLINATION":73.8694,"RA_OF_ASC_NODE":125.8234,"ARG_OF_PERICENTER":67.1717,"MEAN_ANOMALY":293.4236,"EPHEMERIS_TYPE":0,"CLASSIFICATION_TYPE":"U","NORAD_CAT_ID":37305,"ELEMENT_SET_NO":999,"REV_AT_EPOCH":68141,"BSTAR":0.00053177818,"MEAN_MOTION_DOT":1.553e-5,"MEAN_MOTION_DDOT":0},{"OBJECT_NAME":"COSMOS 2251 DEB","OBJECT_ID":"1993-036BKC","EPOCH":"2026-03-14T06:30:22.394592","MEAN_MOTION":14.46498248,"ECCENTRICITY":0.00163394,"INCLINATION":74.0326,"RA_OF_ASC_NODE":33.2699,"ARG_OF_PERICENTER":121.4149,"MEAN_ANOMALY":238.861,"EPHEMERIS_TYPE":0,"CLASSIFICATION_TYPE":"U","NORAD_CAT_ID":37312,"ELEMENT_SET_NO":999,"REV_AT_EPOCH":87487,"BSTAR":0.00052330722,"MEAN_MOTION_DOT":1.86e-5,"MEAN_MOTION_DDOT":0}]
